ONEWEB-0134             
1 47280U 20100Y   24113.12101377 -.00000378  00000+0 -10849-2 0  9990
2 47280  87.8950 147.1452 0002080 100.7330 259.4033 13.12441044161602
ONEWEB-0135             
1 47281U 20100Z   24113.62293460  .00000430  00000+0  11601-2 0  9995
2 47281  87.8954 147.0581 0002074  98.3515 261.7848 13.12443716161696
ONEWEB-0136             
1 47282U 20100AA  24113.64515204  .00000459  00000+0  12402-2 0  9992
2 47282  87.8957 147.0223 0002368 106.4768 253.6621 13.12447414161621
ONEWEB-0137             
1 47283U 20100AB  24113.44980106  .00000089  00000+0  21099-3 0  9990
2 47283  87.8951 147.0881 0002226  93.5148 266.6235 13.12442654161500
ONEWEB-0138             
1 47284U 20100AC  24113.12421043 -.00000349  00000+0 -10042-2 0  9992
2 47284  87.8951 147.1651 0002128  95.8580 264.2791 13.12444489161546
ONEWEB-0139             
1 47285U 20100AD  24113.62928365  .00000244  00000+0  64211-3 0  9997
2 47285  87.8956 147.0351 0002063  96.4238 263.7126 13.12441545161684
ONEWEB-0140             
1 47286U 20100AE  24113.65151356 -.00000381  00000+0 -10946-2 0  9998
2 47286  87.8949 147.0357 0002158  98.2463 261.8910 13.12441367161646
ONEWEB-0141             
1 47287U 20100AF  24113.13770158  .00000026  00000+0  36715-4 0  9997
2 47287  87.8952 147.1372 0002083  88.2550 271.8817 13.12445016161576
